[{"OBJECT_NAME":"STARLINK-31736","OBJECT_ID":"2024-074P","EPOCH":"2026-03-09T02:16:19.374816","MEAN_MOTION":15.27578592,"ECCENTRICITY":0.00014724,"INCLINATION":43.0078,"RA_OF_ASC_NODE":339.9225,"ARG_OF_PERICENTER":268.2918,"MEAN_ANOMALY":91.7765,"EPHEMERIS_TYPE":0,"CLASSIFICATION_TYPE":"U","NORAD_CAT_ID":59547,"ELEMENT_SET_NO":999,"REV_AT_EPOCH":10600,"BSTAR":-0.00011845765,"MEAN_MOTION_DOT":-3.52e-5,"MEAN_MOTION_DDOT":0},{"OBJECT_NAME":"KUIPER-00177","OBJECT_ID":"2026-030C","EPOCH":"2026-03-09T22:40:13.687104","MEAN_MOTION":15.35467467,"ECCENTRICITY":0.00021592,"INCLINATION":51.8837,"RA_OF_ASC_NODE":217.7875,"ARG_OF_PERICENTER":172.5497,"MEAN_ANOMALY":187.5522,"EPHEMERIS_TYPE":0,"CLASSIFICATION_TYPE":"U","NORAD_CAT_ID":67766,"ELEMENT_SET_NO":999,"REV_AT_EPOCH":513,"BSTAR":-0.015747205,"MEAN_MOTION_DOT":-0.00515419,"MEAN_MOTION_DDOT":0}]
